GLOBALSTAR M023         
1 25621U 99004A   24190.51224139 -.00000042  00000+0  34452-3 0  9998
2 25621  52.0122  19.9114 0011005  88.3171 296.4425 12.62461688172321
GLOBALSTAR M040         
1 25622U 99004B   24190.51168690 -.00000100  00000+0  17875-4 0  9994
2 25622  51.9931  23.5576 0001266  47.3783 335.6990 12.61976616171865
GLOBALSTAR M036         
1 25623U 99004C   24190.37843145 -.00000017  00000+0  96309-3 0  9999
2 25623  51.9978  66.5048 0011692 108.1939  64.1782 11.86569724138164
GLOBALSTAR M038         
1 25624U 99004D   24190.57405148 -.00000081  00000+0  11225-3 0  9994
2 25624  51.9993 341.1190 0002492  73.3785   3.5722 12.32502460160007
GLOBALSTAR M022         
1 25649U 99012A   24190.29898557 -.00000065  00000+0  26109-3 0  9998
2 25649  52.0021 145.7341 0002148 212.1629 296.4594 12.02484850135003
GLOBALSTAR M041         
1 25650U 99012B   24190.50181422 -.00000100  00000+0 -19361-3 0  9993
2 25650  52.0037  16.1550 0002764  24.0981 335.9984 11.96655324137383
GLOBALSTAR M046         
1 25651U 99012C   24190.55614154 -.00000153  00000+0 -70633-3 0  9999
2 25651  52.0054 107.7132 0002120 302.1078 229.4042 12.09393571142082
GLOBALSTAR M037         
1 25652U 99012D   24190.42427836 -.00000066  00000+0  21161-3 0  9999
2 25652  51.9986 150.9243 0001688 137.5146  14.6625 12.62410699167855
